METEOR-M2 4             
1 59051U 24039A   24269.17395002  .00000162  00000+0  92295-4 0  9997
2 59051  98.6098 228.6584 0006739 185.4767 174.6338 14.22270560 29709
